NORAD_CAT_ID,OBJECT_NAME,OBJECT_TYPE,EPOCH,MEAN_MOTION,ECCENTRICITY,INCLINATION,RA_OF_ASC_NODE,ARG_OF_PERICENTER,MEAN_ANOMALY,BSTAR,MEAN_MOTION_DOT,MEAN_MOTION_DDOT,TLE_LINE0,TLE_LINE1,TLE_LINE2,SEMIMAJOR_AXIS,PERIOD,APOGEE,PERIGEE,DECAYED
52307.0,STARLINK-3755,PAYLOAD,2023-02-21 16:21:54,15.08842324,0.0001412,53.2149,51.1195,96.4097,263.7056,3.7667e-05,3.12e-06,0.0,0 STARLINK-3755,1 52307U 22041AY  23052.68188573  .00000312  00000-0  37667-4 0  9993,2 52307  53.2149  51.1195 0001412  96.4097 263.7056 15.08842324 46633,6917.873,95.437,540.715,538.761,0.0
52307.0,STARLINK-3755,PAYLOAD,2023-02-22 08:15:46,15.08842322,0.0001567,53.2171,48.149,90.0328,270.0844,1.9792e-05,2.7e-07,0.0,0 STARLINK-3755,1 52307U 22041AY  23053.34428750  .00000027  00000-0  19792-4 0  9993,2 52307  53.2171  48.1490 0001567  90.0328 270.0844 15.08842322 47949,6917.873,95.437,540.822,538.654,0.0
52307.0,STARLINK-3755,PAYLOAD,2023-02-22 16:12:42,15.08841297,0.0001475,53.2171,46.6613,95.1273,264.9887,-5.0037e-05,-1.084e-05,0.0,0 STARLINK-3755,1 52307U 22041AY  23053.67548895 -.00001084  00000-0 -50037-4 0  9995,2 52307  53.2171  46.6613 0001475  95.1273 264.9887 15.08841297 46782,6917.876,95.437,540.762,538.721,0.0
52307.0,STARLINK-3755,PAYLOAD,2023-02-23 08:06:33,15.08837605,0.0001481,53.2175,43.6886,100.4414,259.6745,8.8505e-05,1.121e-05,0.0,0 STARLINK-3755,1 52307U 22041AY  23054.33789165  .00001121  00000-0  88505-4 0  9997,2 52307  53.2175  43.6886 0001481 100.4414 259.6745 15.08837605 48097,6917.888,95.438,540.777,538.728,0.0
52307.0,STARLINK-3755,PAYLOAD,2023-02-23 16:03:29,15.08844773,0.0001397,53.2172,42.2016,88.7525,271.3627,3.4505e-05,2.61e-06,0.0,0 STARLINK-3755,1 52307U 22041AY  23054.66908813  .00000261  00000-0  34505-4 0  9991,2 52307  53.2172  42.2016 0001397  88.7525 271.3627 15.08844773 46936,6917.866,95.437,540.697,538.764,0.0
52307.0,STARLINK-3755,PAYLOAD,2023-02-24 07:57:20,15.0885064,0.0001454,53.2171,39.2273,91.6494,268.4665,0.00025852,3.83e-05,0.0,0 STARLINK-3755,1 52307U 22041AY  23055.33148480  .00003830  00000-0  25852-3 0  9991,2 52307  53.2171  39.2273 0001454  91.6494 268.4665 15.08850640 48243,6917.848,95.437,540.719,538.707,0.0
52307.0,STARLINK-3755,PAYLOAD,2023-02-24 15:54:16,15.08839749,0.0001578,53.2173,37.739,92.8033,267.314,3.8417e-06,-2.27e-06,0.0,0 STARLINK-3755,1 52307U 22041AY  23055.66269002 -.00000227  00000-0  38417-5 0  9992,2 52307  53.2173  37.7390 0001578  92.8033 267.3140 15.08839749 47081,6917.881,95.438,540.838,538.655,0.0
52307.0,STARLINK-3755,PAYLOAD,2023-02-24 22:15:49,15.08837799,0.0001571,53.2168,36.5512,90.6078,269.5094,8.324e-05,1.037e-05,0.0,0 STARLINK-3755,1 52307U 22041AY  23055.92765206  .00001037  00000-0  83240-4 0  9990,2 52307  53.2168  36.5512 0001571  90.6078 269.5094 15.08837799 48330,6917.887,95.438,540.839,538.665,0.0
52307.0,STARLINK-3755,PAYLOAD,2023-02-25 07:48:07,15.08843952,0.0001259,53.2164,34.7658,92.7138,267.3998,0.0001199,1.621e-05,0.0,0 STARLINK-3755,1 52307U 22041AY  23056.32508936  .00001621  00000-0  11990-3 0  9991,2 52307  53.2164  34.7658 0001259  92.7138 267.3998 15.08843952 47189,6917.868,95.437,540.604,538.862,0.0
52307.0,STARLINK-3755,PAYLOAD,2023-02-25 22:06:36,15.08836811,0.0001252,53.2157,32.0884,91.3907,268.7229,4.7362e-05,4.66e-06,0.0,0 STARLINK-3755,1 52307U 22041AY  23056.92125440  .00000466  00000-0  47362-4 0  9991,2 52307  53.2157  32.0884 0001252  91.3907 268.7229 15.08836811 47273,6917.89,95.438,540.621,538.889,0.0
52307.0,STARLINK-3755,PAYLOAD,2023-02-26 04:28:08,15.08843802,0.0001205,53.2161,30.8992,95.7384,264.3746,0.00014921,2.088e-05,0.0,0 STARLINK-3755,1 52307U 22041AY  23057.18621122  .00002088  00000-0  14921-3 0  9994,2 52307  53.2161  30.8992 0001205  95.7384 264.3746 15.08843802 48522,6917.869,95.437,540.567,538.9,0.0
52307.0,STARLINK-3755,PAYLOAD,2023-02-26 07:38:54,15.0885122,0.0001329,53.2161,30.3038,101.3629,258.7512,0.00020595,2.992e-05,0.0,0 STARLINK-3755,1 52307U 22041AY  23057.31868758  .00002992  00000-0  20595-3 0  9995,2 52307  53.2161  30.3038 0001329 101.3629 258.7512 15.08851220 47330,6917.846,95.437,540.63,538.792,0.0
52307.0,STARLINK-3755,PAYLOAD,2023-02-26 21:57:23,15.08841351,0.0001353,53.2161,27.6295,86.6063,273.5083,0.00021398,3.119e-05,0.0,0 STARLINK-3755,1 52307U 22041AY  23057.91485401  .00003119  00000-0  21398-3 0  9995,2 52307  53.2161  27.6295 0001353  86.6063 273.5083 15.08841351 47420,6917.876,95.437,540.677,538.805,0.0
52307.0,STARLINK-3755,PAYLOAD,2023-02-27 07:29:41,15.08857247,0.0001523,53.2147,25.8438,93.3482,266.7685,0.00038596,5.863e-05,0.0,0 STARLINK-3755,1 52307U 22041AY  23058.31228644  .00005863  00000-0  38596-3 0  9990,2 52307  53.2147  25.8438 0001523  93.3482 266.7685 15.08857247 48695,6917.828,95.436,540.746,538.639,0.0
52307.0,STARLINK-3755,PAYLOAD,2023-02-27 21:48:09,15.08866176,0.000129,53.2148,23.1668,86.9874,273.1266,0.00050464,7.758e-05,0.0,0 STARLINK-3755,1 52307U 22041AY  23058.90843841  .00007758  00000-0  50464-3 0  9990,2 52307  53.2148  23.1668 0001290  86.9874 273.1266 15.08866176 47570,6917.8,95.436,540.558,538.773,0.0
52307.0,STARLINK-3755,PAYLOAD,2023-02-28 04:09:40,15.08902334,0.0001143,53.216,21.9778,96.2175,263.8947,0.001624,0.00025697,0.0,0 STARLINK-3755,1 52307U 22041AY  23059.17338643  .00025697  00000-0  16240-2 0  9994,2 52307  53.2160  21.9778 0001143  96.2175 263.8947 15.08902334 48825,6917.69,95.434,540.346,538.764,0.0
52307.0,STARLINK-3755,PAYLOAD,2023-02-28 07:20:26,15.08910152,0.0001189,53.2159,21.3827,95.35,264.7627,0.0017295,0.00027397,0.0,0 STARLINK-3755,1 52307U 22041AY  23059.30586053  .00027397  00000-0  17295-2 0  9999,2 52307  53.2159  21.3827 0001189  95.3500 264.7627 15.08910152 47634,6917.666,95.433,540.353,538.708,0.0
52307.0,STARLINK-3755,PAYLOAD,2023-03-01 04:00:29,15.08801267,8.7e-05,53.2168,17.519,67.5771,292.5313,-0.00052039,-8.551e-05,0.0,0 STARLINK-3755,1 52307U 22041AY  23060.16701198 -.00008551  00000-0 -52039-3 0  9993,2 52307  53.2168  17.5190 0000870  67.5771 292.5313 15.08801267 48976,6917.999,95.44,540.466,539.262,0.0
52307.0,STARLINK-3755,PAYLOAD,2023-03-01 21:29:45,15.08806638,9.85e-05,53.2163,14.2461,78.7017,281.4085,0.0019856,0.00031425,0.0,0 STARLINK-3755,1 52307U 22041AY  23060.89566551  .00031425  00000-0  19856-2 0  9998,2 52307  53.2163  14.2461 0000985  78.7017 281.4085 15.08806638 47878,6917.982,95.44,540.529,539.166,0.0
52307.0,STARLINK-3755,PAYLOAD,2023-03-02 03:51:17,15.08867925,7.97e-05,53.2168,13.0583,62.7218,297.3856,0.0024671,0.00039225,0.0,0 STARLINK-3755,1 52307U 22041AY  23061.16062273  .00039225  00000-0  24671-2 0  9998,2 52307  53.2168  13.0583 0000797  62.7218 297.3856 15.08867925 49120,6917.795,95.436,540.211,539.109,0.0
52307.0,STARLINK-3755,PAYLOAD,2023-03-02 07:02:03,15.08879962,7.96e-05,53.2169,12.4635,64.6002,295.5073,0.002502,0.000398,0.0,0 STARLINK-3755,1 52307U 22041AY  23061.29309935  .00039800  00000-0  25020-2 0  9999,2 52307  53.2169  12.4635 0000796  64.6002 295.5073 15.08879962 47935,6917.758,95.435,540.174,539.073,0.0
52307.0,STARLINK-3755,PAYLOAD,2023-03-03 05:17:26,15.08902403,7.1e-05,53.2166,8.3004,83.8258,276.2815,0.0028289,0.00045099,0.0,0 STARLINK-3755,1 52307U 22041AY  23062.22044604  .00045099  00000-0  28289-2 0  9999,2 52307  53.2166   8.3004 0000710  83.8258 276.2815 15.08902403 49285,6917.69,95.434,540.046,539.063,0.0
52307.0,STARLINK-3755,PAYLOAD,2023-03-04 06:43:35,15.08894073,0.0001236,53.2163,3.5425,80.6981,279.4151,0.0021982,0.00034922,0.0,0 STARLINK-3755,1 52307U 22041AY  23063.28027392  .00034922  00000-0  21982-2 0  9997,2 52307  53.2163   3.5425 0001236  80.6981 279.4151 15.08894073 49447,6917.715,95.434,540.435,538.725,0.0
52307.0,STARLINK-3755,PAYLOAD,2023-03-05 01:48:14,15.08821881,9.93e-05,53.2164,359.975,128.5324,231.5757,0.0013363,0.00021033,0.0,0 STARLINK-3755,1 52307U 22041AY  23064.07517131  .00021033  00000-0  13363-2 0  9993,2 52307  53.2164 359.9750 0000993 128.5324 231.5757 15.08821881 49560,6917.936,95.439,540.488,539.114,0.0
52307.0,STARLINK-3755,PAYLOAD,2023-03-05 08:09:47,15.08856126,0.0001153,53.2167,358.7855,118.5669,241.5439,0.0020238,0.00032082,0.0,0 STARLINK-3755,1 52307U 22041AY  23064.34012985  .00032082  00000-0  20238-2 0  9995,2 52307  53.2167 358.7855 0001153 118.5669 241.5439 15.08856126 49609,6917.831,95.437,540.494,538.898,0.0
52307.0,STARLINK-3755,PAYLOAD,2023-03-06 04:49:48,15.08869311,0.0001329,53.2167,354.9164,108.6957,251.4179,0.0025143,0.00039987,0.0,0 STARLINK-3755,1 52307U 22041AY  23065.20125377  .00039987  00000-0  25143-2 0  9992,2 52307  53.2167 354.9164 0001329 108.6957 251.4179 15.08869311 49730,6917.791,95.436,540.575,538.736,0.0
52307.0,STARLINK-3755,PAYLOAD,2023-03-07 06:15:59,15.08867255,0.0001355,53.2175,350.1622,64.135,295.9782,0.0024289,0.00038609,0.0,0 STARLINK-3755,1 52307U 22041AY  23066.26110257  .00038609  00000-0  24289-2 0  9990,2 52307  53.2175 350.1622 0001355  64.1350 295.9782 15.08867255 49893,6917.797,95.436,540.599,538.725,0.0
52307.0,STARLINK-3755,PAYLOAD,2023-03-07 18:59:04,15.0885072,0.0001346,53.2183,347.7861,57.4057,302.7065,0.0010713,0.00016808,0.0,0 STARLINK-3755,1 52307U 22041AY  23066.79102474  .00016808  00000-0  10713-2 0  9994,2 52307  53.2183 347.7861 0001346  57.4057 302.7065 15.08850720 49977,6917.848,95.437,540.644,538.781,0.0
52307.0,STARLINK-3755,PAYLOAD,2023-03-08 02:55:59,15.08879415,0.0001273,53.2178,346.2983,81.6468,278.4669,0.0026902,0.00042833,0.0,0 STARLINK-3755,1 52307U 22041AY  23067.12221896  .00042833  00000-0  26902-2 0  9996,2 52307  53.2178 346.2983 0001273  81.6468 278.4669 15.08879415 50023,6917.76,95.435,540.506,538.744,0.0
52307.0,STARLINK-3755,PAYLOAD,2023-03-08 04:31:22,15.08885248,0.0001264,53.2178,346.0008,82.1403,277.9733,0.0026001,0.00041387,0.0,0 STARLINK-3755,1 52307U 22041AY  23067.18845655  .00041387  00000-0  26001-2 0  9990,2 52307  53.2178 346.0008 0001264  82.1403 277.9733 15.08885248 48826,6917.742,95.435,540.481,538.733,0.0
